{"type":"FeatureCollection","features":[{"type":"Feature","geometry":{"type":"Point","coordinates":[29.1530887,51.803843]},"properties":{"id":"node/306064661","name":"Ленін","memorial":"statue"}},{"type":"Feature","geometry":{"type":"Point","coordinates":[31.0153002,52.4242035]},"properties":{"id":"node/471764408","name":"У. І. Ленін","memorial":"statue"}},{"type":"Feature","geometry":{"type":"Point","coordinates":[24.9843403,52.5346896]},"properties":{"id":"node/663172987","name":"У.І.Ленін"}},{"type":"Feature","geometry":{"type":"Point","coordinates":[27.5405521,52.78331]},"properties":{"id":"node/828733544","name":"У.І.Ленін"}},{"type":"Feature","geometry":{"type":"Point","coordinates":[29.2674864,52.0493701]},"properties":{"id":"node/890135750","name":"Ленін"}},{"type":"Feature","geometry":{"type":"Point","coordinates":[24.4644704,53.1629714]},"properties":{"id":"node/1124671288","name":"У. І. Леніну"}},{"type":"Feature","geometry":{"type":"Point","coordinates":[29.3414065,53.4894234]},"properties":{"id":"node/1131397342","name":"Ленін","memorial":"statue"}},{"type":"Feature","geometry":{"type":"Point","coordinates":[30.9469496,52.5066583]},"properties":{"id":"node/1390113198","name":"Помнік Леніну"}},{"type":"Feature","geometry":{"type":"Point","coordinates":[27.4631594,52.722314]},"properties":{"id":"node/1398943140","name":"Ленін У.І.","memorial":"statue"}},{"type":"Feature","geometry":{"type":"Point","coordinates":[28.4180374,53.7148059]},"properties":{"id":"node/1458852482","name":"Ленін"}},{"type":"Feature","geometry":{"type":"Point","coordinates":[27.2175455,53.4583058]},"properties":{"id":"node/1528692154","name":"У.І.Ленін"}},{"type":"Feature","geometry":{"type":"Point","coordinates":[27.625134,53.9298167]},"properties":{"id":"node/1645592785","name":"Ленін","memorial":"bust"}},{"type":"Feature","geometry":{"type":"Point","coordinates":[25.4054985,53.4620011]},"properties":{"id":"node/1807214621","name":"помнік Леніну"}},{"type":"Feature","geometry":{"type":"Point","coordinates":[30.9734787,53.8075225]},"properties":{"id":"node/2201525659","name":"Ленін У. І."}},{"type":"Feature","geometry":{"type":"Point","coordinates":[26.4274448,52.7624215]},"properties":{"id":"node/2246993048","name":"Ленін","memorial":"statue"}},{"type":"Feature","geometry":{"type":"Point","coordinates":[29.9674342,51.8870627]},"properties":{"id":"node/2480042771","name":"У.І.Ленін"}},{"type":"Feature","geometry":{"type":"Point","coordinates":[30.3861648,52.3711932]},"properties":{"id":"node/2668301119","name":"У. І. Ленін","memorial":"statue"}},{"type":"Feature","geometry":{"type":"Point","coordinates":[25.8246526,53.5981208]},"properties":{"id":"node/2956914044","name":"У. І. Ленін"}},{"type":"Feature","geometry":{"type":"Point","coordinates":[32.5781864,53.4075467]},"properties":{"id":"node/3016270555","name":"Ленін","memorial":"statue"}},{"type":"Feature","geometry":{"type":"Point","coordinates":[28.6406467,53.298732]},"properties":{"id":"node/3119003619","name":"Ленін"}},{"type":"Feature","geometry":{"type":"Point","coordinates":[29.2380601,52.0397315]},"properties":{"id":"node/3174915634","name":"Блакаднаму Ленінграду"}},{"type":"Feature","geometry":{"type":"Point","coordinates":[25.5355414,52.1471301]},"properties":{"id":"node/3212149498","name":"У. І. Леніну (Ульянаву)"}},{"type":"Feature","geometry":{"type":"Point","coordinates":[25.3390054,52.7093228]},"properties":{"id":"node/3248374682","name":"Ленін У.І."}},{"type":"Feature","geometry":{"type":"Point","coordinates":[29.1999395,52.0777547]},"properties":{"id":"node/3259601140","name":"Ленін"}},{"type":"Feature","geometry":{"type":"Point","coordinates":[23.7543176,52.0977609]},"properties":{"id":"node/3306886058","name":"Горад герой Ленінград","memorial":"stele"}},{"type":"Feature","geometry":{"type":"Point","coordinates":[24.0829361,51.7922512]},"properties":{"id":"node/3322459389","name":"Ленін У.І.","memorial":"statue"}},{"type":"Feature","geometry":{"type":"Point","coordinates":[31.1871196,52.2943245]},"properties":{"id":"node/3404923488","name":"У.І.Ленін"}},{"type":"Feature","geometry":{"type":"Point","coordinates":[31.715924,53.6963643]},"properties":{"id":"node/3414905855","name":"Ленін У. І."}},{"type":"Feature","geometry":{"type":"Point","coordinates":[29.4577287,55.0456616]},"properties":{"id":"node/3732300317","name":"Ленін"}},{"type":"Feature","geometry":{"type":"Point","coordinates":[29.1936659,52.0367602]},"properties":{"id":"node/3740402331","name":"Ленін У.І."}},{"type":"Feature","geometry":{"type":"Point","coordinates":[29.2398696,55.224847]},"properties":{"id":"node/3742590530","name":"Леніну У. І.","memorial":"sculpture"}},{"type":"Feature","geometry":{"type":"Point","coordinates":[29.1919357,52.037165]},"properties":{"id":"node/3771749644","name":"Ленін У.І."}},{"type":"Feature","geometry":{"type":"Point","coordinates":[24.0928456,53.0351909]},"properties":{"id":"node/3845415394","name":"Леніну У. І."}},{"type":"Feature","geometry":{"type":"Point","coordinates":[23.5696705,52.4971957]},"properties":{"id":"node/3875841967","name":"Помнік Леніну","memorial":"bust"}},{"type":"Feature","geometry":{"type":"Point","coordinates":[28.3290486,51.7856884]},"properties":{"id":"node/3947680477","name":"Ленін"}},{"type":"Feature","geometry":{"type":"Point","coordinates":[25.1600943,52.185365]},"properties":{"id":"node/4042039269","name":"Ленін"}},{"type":"Feature","geometry":{"type":"Point","coordinates":[31.3805209,53.569107]},"properties":{"id":"node/4105620190","name":"У.І.Ленін","memorial":"statue"}},{"type":"Feature","geometry":{"type":"Point","coordinates":[27.5568774,53.8913092]},"properties":{"id":"node/4153501996","name":"Ленін","memorial":"statue"}},{"type":"Feature","geometry":{"type":"Point","coordinates":[29.3314575,52.1286784]},"properties":{"id":"node/4210984592","name":"Ленін У.І."}},{"type":"Feature","geometry":{"type":"Point","coordinates":[29.2082942,52.0720562]},"properties":{"id":"node/4214328004","name":"У І Ленін"}},{"type":"Feature","geometry":{"type":"Point","coordinates":[28.880311,52.6346657]},"properties":{"id":"node/4232005616","name":"помнік Леніну"}},{"type":"Feature","geometry":{"type":"Point","coordinates":[29.1614401,54.8642305]},"properties":{"id":"node/4249288751","name":"У.І. Леніну"}},{"type":"Feature","geometry":{"type":"Point","coordinates":[25.3225752,53.0966249]},"properties":{"id":"node/4310515290","name":"У.І.Ленін"}},{"type":"Feature","geometry":{"type":"Point","coordinates":[26.8006209,52.2459003]},"properties":{"id":"node/4331509890","name":"Ленін"}},{"type":"Feature","geometry":{"type":"Point","coordinates":[29.5073622,51.7975326]},"properties":{"id":"node/4375248389","name":"Леніну У. І."}},{"type":"Feature","geometry":{"type":"Point","coordinates":[30.4007873,54.493711]},"properties":{"id":"node/4420017810","name":"У. І. Ленін","memorial":"statue"}},{"type":"Feature","geometry":{"type":"Point","coordinates":[28.0020736,52.7916239]},"properties":{"id":"node/4481398976","name":"Ленін У.І."}},{"type":"Feature","geometry":{"type":"Point","coordinates":[24.531568,53.7308006]},"properties":{"id":"node/4521963594","name":"Ленін","memorial":"statue"}},{"type":"Feature","geometry":{"type":"Point","coordinates":[30.9614576,52.4198707]},"properties":{"id":"node/4548032718","name":"У. І. Ленін","memorial":"statue"}},{"type":"Feature","geometry":{"type":"Point","coordinates":[31.9395483,53.6141157]},"properties":{"id":"node/4598345817","name":"помнік Леніну"}},{"type":"Feature","geometry":{"type":"Point","coordinates":[28.4760305,54.1779222]},"properties":{"id":"node/4664365889","name":"У. І. Леніну (Ульянаву)","memorial":"bust"}},{"type":"Feature","geometry":{"type":"Point","coordinates":[27.3549462,54.6845028]},"properties":{"id":"node/4684271494","name":"Помнік Леніну"}},{"type":"Feature","geometry":{"type":"Point","coordinates":[30.6917287,54.5723822]},"properties":{"id":"node/4749926068","name":"У.І.Ленін","memorial":"statue"}},{"type":"Feature","geometry":{"type":"Point","coordinates":[30.9893215,54.2895955]},"properties":{"id":"node/4781370723","name":"Уладзімір Ільіч Ленін"}},{"type":"Feature","geometry":{"type":"Point","coordinates":[30.5689083,52.7155907]},"properties":{"id":"node/4798517288","name":"У. І. Ленін"}},{"type":"Feature","geometry":{"type":"Point","coordinates":[23.8217503,52.4019605]},"properties":{"id":"node/4813948221","name":"Ленін"}},{"type":"Feature","geometry":{"type":"Point","coordinates":[27.4719158,52.2158828]},"properties":{"id":"node/4816317278","name":"У.І.Ленін"}},{"type":"Feature","geometry":{"type":"Point","coordinates":[27.1289107,53.6853621]},"properties":{"id":"node/4907692025","name":"Ленін"}},{"type":"Feature","geometry":{"type":"Point","coordinates":[27.0338557,53.9816744]},"properties":{"id":"node/4927258078","name":"Ленін"}},{"type":"Feature","geometry":{"type":"Point","coordinates":[29.248203,53.1528411]},"properties":{"id":"node/4928455690","name":"У.І.Ленін","memorial":"bust"}},{"type":"Feature","geometry":{"type":"Point","coordinates":[28.4701325,55.4090118]},"properties":{"id":"node/4934140297","name":"Леніну"}},{"type":"Feature","geometry":{"type":"Point","coordinates":[23.7608363,53.4039622]},"properties":{"id":"node/4977282698","name":"У. І. Ленін","memorial":"bust"}},{"type":"Feature","geometry":{"type":"Point","coordinates":[30.24666,53.5182174]},"properties":{"id":"node/5200059522","name":"Ленін","memorial":"statue"}},{"type":"Feature","geometry":{"type":"Point","coordinates":[31.3169823,52.4215031]},"properties":{"id":"node/5222187499","name":"У. І. Ленін","memorial":"statue"}},{"type":"Feature","geometry":{"type":"Point","coordinates":[27.7622036,54.8892944]},"properties":{"id":"node/5338584143","name":"У. І. Ленін"}},{"type":"Feature","geometry":{"type":"Point","coordinates":[26.1727378,53.6506684]},"properties":{"id":"node/5423341328","name":"У.І.Ленін","memorial":"bust"}},{"type":"Feature","geometry":{"type":"Point","coordinates":[28.0619934,54.7312948]},"properties":{"id":"node/5497238599","name":"Ленін"}},{"type":"Feature","geometry":{"type":"Point","coordinates":[30.2131192,54.840688]},"properties":{"id":"node/5586161524","name":"У. І. Ленін"}},{"type":"Feature","geometry":{"type":"Point","coordinates":[25.7542328,53.2936601]},"properties":{"id":"node/5592751813","name":"Леніну У. І."}},{"type":"Feature","geometry":{"type":"Point","coordinates":[25.9385779,54.425259]},"properties":{"id":"node/5661573130","name":"Ленін"}},{"type":"Feature","geometry":{"type":"Point","coordinates":[30.7949611,55.02658]},"properties":{"id":"node/5685184078","name":"Ленін"}},{"type":"Feature","geometry":{"type":"Point","coordinates":[24.2392905,51.888579]},"properties":{"id":"node/5685223441","name":"Бюст Уладзіміра Леніна","memorial":"person"}},{"type":"Feature","geometry":{"type":"Point","coordinates":[25.5379846,52.1360846]},"properties":{"id":"node/5685290421","name":"Ленін малады"}},{"type":"Feature","geometry":{"type":"Point","coordinates":[26.0774965,52.1122459]},"properties":{"id":"node/5685424622","name":"Бюст У.І. Леніна","memorial":"statue"}},{"type":"Feature","geometry":{"type":"Point","coordinates":[23.3790389,52.3663696]},"properties":{"id":"node/5792154077","name":"В. І. Леніну","memorial":"statue"}},{"type":"Feature","geometry":{"type":"Point","coordinates":[31.3192693,52.4133572]},"properties":{"id":"node/5896900307","name":"У. І. Ленін","memorial":"statue"}},{"type":"Feature","geometry":{"type":"Point","coordinates":[24.0165901,52.2003376]},"properties":{"id":"node/5911190909","name":"У. І. Ленін","memorial":"bust"}},{"type":"Feature","geometry":{"type":"Point","coordinates":[30.9844322,54.2941757]},"properties":{"id":"node/5977585185","name":"Ленін"}},{"type":"Feature","geometry":{"type":"Point","coordinates":[24.7078,52.4872018]},"properties":{"id":"node/6142800006","name":"У.І.Ленін","memorial":"bust"}},{"type":"Feature","geometry":{"type":"Point","coordinates":[26.8514972,51.8890977]},"properties":{"id":"node/6330750804","name":"Уладзімір Ільіч Ленін","memorial":"statue"}},{"type":"Feature","geometry":{"type":"Point","coordinates":[27.2072194,55.1465458]},"properties":{"id":"node/6782119688","name":"Ленін","memorial":"statue"}},{"type":"Feature","geometry":{"type":"Point","coordinates":[29.0060743,52.0448219]},"properties":{"id":"node/6929653838","name":"Ленін У.І.","memorial":"statue"}},{"type":"Feature","geometry":{"type":"Point","coordinates":[28.9315919,53.2488433]},"properties":{"id":"node/6935391896","name":"Ленін У.І.","memorial":"bust"}},{"type":"Feature","geometry":{"type":"Point","coordinates":[25.7690348,53.9290542]},"properties":{"id":"node/6969932390","name":"У.І.Ленін"}},{"type":"Feature","geometry":{"type":"Point","coordinates":[24.4800306,52.493862]},"properties":{"id":"node/7084637387","name":"Ленін"}},{"type":"Feature","geometry":{"type":"Point","coordinates":[30.2175403,53.5266897]},"properties":{"id":"node/7436687593","name":"Ленін","memorial":"statue"}},{"type":"Feature","geometry":{"type":"Point","coordinates":[31.0330463,52.5054221]},"properties":{"id":"node/7437041561","name":"Ленін У.І.","memorial":"bust"}},{"type":"Feature","geometry":{"type":"Point","coordinates":[31.0346583,52.5043756]},"properties":{"id":"node/7437041563","name":"У. І. Ленін","memorial":"bust"}},{"type":"Feature","geometry":{"type":"Point","coordinates":[30.1059857,55.2732018]},"properties":{"id":"node/7465082129","name":"бюст Леніна У. І.","memorial":"bust"}},{"type":"Feature","geometry":{"type":"Point","coordinates":[30.2469792,55.1751624]},"properties":{"id":"node/7524561220","name":"бюст Леніна У. І.","memorial":"bust"}},{"type":"Feature","geometry":{"type":"Point","coordinates":[31.3994677,53.3392315]},"properties":{"id":"node/7560551724","name":"120 работнікам калгаса імя Леніна загінуўшым у ВАВ"}},{"type":"Feature","geometry":{"type":"Point","coordinates":[31.4009444,53.333309]},"properties":{"id":"node/7563745283","name":"Ленін У.І.","memorial":"statue"}},{"type":"Feature","geometry":{"type":"Point","coordinates":[30.8054062,51.9388769]},"properties":{"id":"node/7704904463","name":"Ленін","memorial":"statue"}},{"type":"Feature","geometry":{"type":"Point","coordinates":[25.141253,53.0474205]},"properties":{"id":"node/7764900316","name":"У.І.Ленін","memorial":"bust"}},{"type":"Feature","geometry":{"type":"Point","coordinates":[30.2746519,51.7812393]},"properties":{"id":"node/7937064582","name":"У.І.Ленін"}},{"type":"Feature","geometry":{"type":"Point","coordinates":[29.7372937,51.9174479]},"properties":{"id":"node/8015518785","name":"Ленін маленькі"}},{"type":"Feature","geometry":{"type":"Point","coordinates":[28.12973,55.8663716]},"properties":{"id":"node/8349864217","name":"Ленін"}},{"type":"Feature","geometry":{"type":"Point","coordinates":[29.7372587,51.9174709]},"properties":{"id":"node/8349889925","name":"Ленін"}},{"type":"Feature","geometry":{"type":"Point","coordinates":[26.0246846,53.1276374]},"properties":{"id":"node/8626524918","name":"Ленін","memorial":"statue"}},{"type":"Feature","geometry":{"type":"Point","coordinates":[29.1423922,54.319693]},"properties":{"id":"node/8701332389","name":"Бюст У.І.Леніна","memorial":"bust"}},{"type":"Feature","geometry":{"type":"Point","coordinates":[27.4479366,53.9765295]},"properties":{"id":"node/8870369035","name":"У.І.Ленін","memorial":"statue"}},{"type":"Feature","geometry":{"type":"Point","coordinates":[29.2209271,52.0264365]},"properties":{"id":"node/8972951685","name":"У.І.Ленін","memorial":"bust"}},{"type":"Feature","geometry":{"type":"Point","coordinates":[31.7123383,53.6935506]},"properties":{"id":"node/9044675696","name":"Ленін У. І."}},{"type":"Feature","geometry":{"type":"Point","coordinates":[31.9610649,53.6105158]},"properties":{"id":"node/9061651223","name":"Ленін"}},{"type":"Feature","geometry":{"type":"Point","coordinates":[32.0587657,53.3512403]},"properties":{"id":"node/9061651224","name":"Ленін"}},{"type":"Feature","geometry":{"type":"Point","coordinates":[28.6932394,54.8865651]},"properties":{"id":"node/9081084321","name":"Помнік Леніну","memorial":"statue"}},{"type":"Feature","geometry":{"type":"Point","coordinates":[23.7693383,52.2770377]},"properties":{"id":"node/9124249375","name":"Ленін У.І.","memorial":"bust"}},{"type":"Feature","geometry":{"type":"Point","coordinates":[30.9172259,52.9188498]},"properties":{"id":"node/9311284723","name":"У. І. Ленін","memorial":"statue"}},{"type":"Feature","geometry":{"type":"Point","coordinates":[24.3633148,52.9365494]},"properties":{"id":"node/9451064340","name":"Помнік Леніну","memorial":"statue"}},{"type":"Feature","geometry":{"type":"Point","coordinates":[25.9191318,53.2744906]},"properties":{"id":"node/9573853824","name":"Ленін У.І.","memorial":"bust"}},{"type":"Feature","geometry":{"type":"Point","coordinates":[27.6180414,53.8896964]},"properties":{"id":"node/9589198719","name":"У.І.Ленін","memorial":"statue"}},{"type":"Feature","geometry":{"type":"Point","coordinates":[25.8392882,53.5988841]},"properties":{"id":"node/9705204817","name":"Малады У.І. Ленін"}},{"type":"Feature","geometry":{"type":"Point","coordinates":[27.5906561,53.8834958]},"properties":{"id":"node/9722023817","name":"У.І.Ленін","memorial":"statue"}},{"type":"Feature","geometry":{"type":"Point","coordinates":[27.2927039,54.0551616]},"properties":{"id":"node/9722187817","name":"Бюст У.І. Леніна"}},{"type":"Feature","geometry":{"type":"Point","coordinates":[25.7581106,52.8526875]},"properties":{"id":"node/9759186660","name":"У. І. Ленін","memorial":"statue"}},{"type":"Feature","geometry":{"type":"Point","coordinates":[26.9752567,52.7253934]},"properties":{"id":"node/9812105246","name":"Ленін У.І.","memorial":"bust"}},{"type":"Feature","geometry":{"type":"Point","coordinates":[29.7102128,53.9982823]},"properties":{"id":"node/9947930355","name":"Ленін У.І."}},{"type":"Feature","geometry":{"type":"Point","coordinates":[26.1285245,52.1835262]},"properties":{"id":"node/9977135616","name":"В. И. Ленин","memorial":"bust"}},{"type":"Feature","geometry":{"type":"Point","coordinates":[26.0428657,53.1293517]},"properties":{"id":"node/10704735005","name":"Указ аб узнагароджанні ордэнам Леніна","memorial":"plaque"}},{"type":"Feature","geometry":{"type":"Point","coordinates":[23.5963984,51.748443]},"properties":{"id":"node/10721623161","name":"Леніну","memorial":"statue"}},{"type":"Feature","geometry":{"type":"Point","coordinates":[30.0503057,54.6034957]},"properties":{"id":"node/10923549977","name":"Уладзімір Ільіч Ленін","memorial":"bust"}},{"type":"Feature","geometry":{"type":"Point","coordinates":[25.3524193,53.5319895]},"properties":{"id":"node/11034697008","name":"Ленін","memorial":"bust"}},{"type":"Feature","geometry":{"type":"Point","coordinates":[28.6406202,53.2987135]},"properties":{"id":"node/11036090505","name":"Помнік Леніну","memorial":"statue"}},{"type":"Feature","geometry":{"type":"Point","coordinates":[29.6173671,55.2989142]},"properties":{"id":"node/11143855605","name":"Ленін"}},{"type":"Feature","geometry":{"type":"Point","coordinates":[31.0290787,52.3919812]},"properties":{"id":"node/11332808961","name":"У. І. Ленін","memorial":"statue"}},{"type":"Feature","geometry":{"type":"Point","coordinates":[28.3614132,53.4878026]},"properties":{"id":"node/11359839607","name":"У гонар Пухавіцкага райкама камуністычнай партыі Беларусі і Ленінскага камуністычнага саюза Беларусі, партызанскай брыгады «Полымя»","memorial":"memorial"}},{"type":"Feature","geometry":{"type":"Point","coordinates":[30.3820612,54.4367276]},"properties":{"id":"node/11363549272","name":"У. І. Ленін","memorial":"bust"}},{"type":"Feature","geometry":{"type":"Point","coordinates":[30.2027242,55.1988354]},"properties":{"id":"node/11533890769","name":"В.И.Ленин"}},{"type":"Feature","geometry":{"type":"Point","coordinates":[29.2630453,52.4635864]},"properties":{"id":"node/11638938682","name":"Ленин","memorial":"statue"}},{"type":"Feature","geometry":{"type":"Point","coordinates":[30.8680965,52.4349698]},"properties":{"id":"node/11762040600","name":"У. І. Ленін","memorial":"statue"}},{"type":"Feature","geometry":{"type":"Point","coordinates":[26.09219,52.1233879]},"properties":{"id":"node/11809981283","name":"В. И. Ленин","memorial":"bust"}},{"type":"Feature","geometry":{"type":"Point","coordinates":[23.7317797,52.101224]},"properties":{"id":"node/11990624987","name":"У. І. Леніну","memorial":"bust"}},{"type":"Feature","geometry":{"type":"Point","coordinates":[30.4274286,52.3659578]},"properties":{"id":"node/12014943454","name":"У. І. Ленін","memorial":"statue"}},{"type":"Feature","geometry":{"type":"Point","coordinates":[24.0184332,53.1921297]},"properties":{"id":"node/12174782051","name":"Уладзімір Ільіч Ленін"}},{"type":"Feature","geometry":{"type":"Point","coordinates":[26.3480848,52.323229]},"properties":{"id":"node/12189493056","name":"В. И. Ленин","memorial":"statue"}},{"type":"Feature","geometry":{"type":"Point","coordinates":[23.6801759,52.0999856]},"properties":{"id":"node/12598272607","name":"Ульянаў (Ленін) Уладзімір Ілліч","memorial":"plaque"}},{"type":"Feature","geometry":{"type":"Point","coordinates":[29.8580382,51.6024895]},"properties":{"id":"node/12814341817","name":"Ленін","memorial":"plaque"}},{"type":"Feature","geometry":{"type":"Point","coordinates":[28.2656758,53.0394153]},"properties":{"id":"node/12829209318","name":"У.І. Ленін","memorial":"statue"}},{"type":"Feature","geometry":{"type":"Point","coordinates":[26.6111285,54.2221522]},"properties":{"id":"node/13021395416","name":"В.И.Ленин","memorial":"statue"}},{"type":"Feature","geometry":{"type":"Point","coordinates":[26.314133,54.2757148]},"properties":{"id":"node/13028099795","name":"Ленин","memorial":"bust"}},{"type":"Feature","geometry":{"type":"Point","coordinates":[30.9782749,52.4732239]},"properties":{"id":"node/13100446040","name":"У. І. Ленін","memorial":"bust"}},{"type":"Feature","geometry":{"type":"Point","coordinates":[30.1729712,55.1758856]},"properties":{"id":"node/13582793315","name":"Ленін У. І.","memorial":"bust"}},{"type":"Feature","geometry":{"type":"Point","coordinates":[26.7213853,54.9113735]},"properties":{"id":"node/14053657501","name":"В.И. Ленин"}},{"type":"Feature","geometry":{"type":"Point","coordinates":[23.9802548,52.1888584]},"properties":{"id":"node/14054412633","name":"У. І. Леніну","memorial":"bust"}}]}